0 COSMOS 1888
1 18384U 87084A   13281.38535740  .00000044  00000-0  00000+0 0  3363
2 18384 014.5186 008.6038 0006239 120.7134 256.4105 01.00168194 95203
0 COSMOS 1888
1 18384U 87084A   13288.38662071  .00000043  00000-0  00000+0 0  3378
2 18384 014.5228 008.5306 0005700 122.6605 259.2713 01.00171227 95277
0 COSMOS 1888
1 18384U 87084A   13290.41482360  .00000047  00000-0  00000+0 0  3381
2 18384 014.5239 008.5090 0005544 122.1480 271.2156 01.00171971 95294
0 COSMOS 1888
1 18384U 87084A   13293.31122329  .00000055  00000-0  00000+0 0  3399
2 18384 014.5256 008.4786 0005432 120.6160 237.2904 01.00172877 95321
